NIMIQ 2                 
1 27632U 02062A   26177.22899935 -.00000067  00000+0  00000+0 0  9992
2 27632   9.4663  56.8044 0005799  33.0730 157.7329  1.00272349 44272
ANIK F2                 
1 28378U 04027A   26177.31021324 -.00000042  00000+0  00000+0 0  9995
2 28378   3.3108  79.3291 0004260  13.8319 181.8221  1.00272157 41354
ANIK F1R                
1 28868U 05036A   26177.14542662 -.00000068  00000+0  00000+0 0  9992
2 28868   4.3354  76.4732 0004394  11.6528 131.2015  1.00272097 46545
ANIK F3                 
1 31102U 07009A   26177.00052003  .00000008  00000+0  00000+0 0  9992
2 31102   1.2203  83.7633 0002914  14.4879  57.3832  1.00274733 46652
NIMIQ 4                 
1 33373U 08044A   26177.14906012 -.00000209  00000+0  00000+0 0  9991
2 33373   0.0020 355.1568 0001952 113.3467 137.4192  1.00270024 65079
TELSTAR 11N             
1 34111U 09009A   26176.51745373 -.00000241  00000+0  00000+0 0  9991
2 34111   0.0431  81.6963 0002640  12.0931 328.5990  1.00272414 46323
TERRESTAR-1             
1 35496U 09035A   26176.60225260 -.00000051  00000+0  00000+0 0  9994
2 35496   5.1774  48.7939 0002654  39.5475 291.1928  1.00272964 62217
NIMIQ 5                 
1 35873U 09050A   26177.29796862 -.00000246  00000+0  00000+0 0  9993
2 35873   0.0386 273.1326 0002965 172.1695 223.6925  1.00271218 61437
SKYTERRA 1              
1 37218U 10061A   26177.23146235 -.00000112  00000+0  00000+0 0  9991
2 37218   5.1442  50.8475 0002441  23.4225 182.0995  1.00272947 57285
TELSTAR 14R             
1 37602U 11021A   26177.30142733 -.00000269  00000+0  00000+0 0  9995
2 37602   0.0419  80.2341 0002409 350.1196 249.5976  1.00271733 55929
NIMIQ 6                 
1 38342U 12026A   26177.18885089 -.00000163  00000+0  00000+0 0  9990
2 38342   0.0109  32.7967 0002971  58.1139 160.2856  1.00271726 50506
ANIK G1                 
1 39127U 13014A   26177.31087852 -.00000063  00000+0  00000+0 0  9996
2 39127   0.0231 287.7215 0001929 164.0053 187.3153  1.00272599 48344
TELSTAR 12V             
1 41036U 15068A   26177.23496787 -.00000107  00000+0  00000+0 0  9990
2 41036   0.0177 335.3571 0002454 121.5903 247.0159  1.00273313 38711
VIASAT-2                
1 42740U 17029A   26175.22767060 -.00000258  00000+0  00000+0 0  9991
2 42740   0.0153 301.1892 0000353 112.3888 230.8800  1.00272341 33270
LEO 1 (LEO VANTAGE 1)   
1 43113U 18004C   26177.24835140  .00004797  00000+0  33027-3 0  9999
2 43113  99.2430  96.7199 0350917  51.7601 311.4637 14.67866339438819
TELSTAR 19V             
1 43562U 18059A   26177.30142321 -.00000269  00000+0  00000+0 0  9998
2 43562   0.0309 140.4591 0002986 335.0763 204.4002  1.00270692 29235
TELSTAR 18V             
1 43611U 18069A   26176.98007881 -.00000283  00000+0  00000+0 0  9994
2 43611   0.0164 329.6094 0002123 122.9973 312.3188  1.00270510 28723
AMOS-17                 
1 44479U 19050A   26177.24129457  .00000120  00000+0  00000+0 0  9991
2 44479   0.0274 312.5458 0002179 170.8264 254.8475  1.00271970 25276
